; Generated by CNCPlotter python pipeline
G21
G90
M5
G0 X17.6 Y9.2 F3000
M3 S30
G1 X17.2 Y8.8 F1200
G1 X17.6 Y7.6 F1200
G1 X16.6 Y7.8 F1200
G1 X17.2 Y7.2 F1200
G1 X18 Y7.6 F1200
G1 X17.6 Y8.8 F1200
G1 X18.4 Y8.6 F1200
G1 X17.8 Y9.2 F1200
M5
G0 X18.8 Y8.4 F3000
M3 S30
G1 X19.2 Y7.8 F1200
G1 X18.6 Y6.4 F1200
G1 X19.6 Y7.8 F1200
G1 X20.2 Y7.8 F1200
G1 X20 Y6.4 F1200
G1 X20.4 Y5.8 F1200
G1 X21.2 Y5.8 F1200
G1 X22 Y7.2 F1200
G1 X21.6 Y7.4 F1200
G1 X21.2 Y6.2 F1200
G1 X20.6 Y6 F1200
G1 X20.8 Y7.8 F1200
G1 X20.4 Y7.6 F1200
G1 X19 Y8.4 F1200
M5
G0 X22.4 Y7 F3000
M3 S30
G1 X22 Y5.2 F1200
G1 X23.4 Y5.2 F1200
G1 X23.8 Y6.4 F1200
G1 X22.6 Y7 F1200
M5
G0 X22.6 Y6.4 F3000
M3 S30
G1 X23.2 Y6.6 F1200
G1 X23.6 Y6 F1200
G1 X23.2 Y5.4 F1200
G1 X22.6 Y5.4 F1200
G1 X22.6 Y6.2 F1200
M5
G0 X24.6 Y6.6 F3000
M3 S30
G1 X24.2 Y4.8 F1200
G1 X25.6 Y4.6 F1200
G1 X24.6 Y5.2 F1200
G1 X25.6 Y5.4 F1200
G1 X24.8 Y5.8 F1200
G1 X25 Y6.2 F1200
G1 X25.8 Y6.2 F1200
G1 X24.8 Y6.4 F1200
M5
G0 X26.2 Y6.2 F3000
M3 S30
G1 X26.2 Y4.4 F1200
G1 X26.8 Y5.4 F1200
G1 X27.4 Y4.2 F1200
G1 X27.8 Y4.2 F1200
G1 X28 Y6 F1200
G1 X27.4 Y5 F1200
G1 X26.8 Y6.2 F1200
G1 X26.4 Y6.2 F1200
M5
G0 X28.4 Y6.2 F3000
M3 S30
G1 X29 Y5.8 F1200
G1 X29.2 Y4.4 F1200
G1 X29.2 Y5.8 F1200
G1 X29.8 Y6.2 F1200
G1 X28.6 Y6.2 F1200
M5
G0 X31.4 Y6.4 F3000
M3 S30
G1 X31 Y6.2 F1200
G1 X31.2 Y4.4 F1200
G1 X32.6 Y4.6 F1200
G1 X31.6 Y5 F1200
G1 X32.4 Y5.4 F1200
G1 X31.4 Y5.8 F1200
G1 X32.2 Y6.2 F1200
G1 X31.6 Y6.4 F1200
M5
G0 X34.2 Y6.6 F3000
M3 S30
G1 X34 Y5.8 F1200
G1 X34.8 Y5 F1200
G1 X34.4 Y4.8 F1200
G1 X33.8 Y5.4 F1200
G1 X33 Y4.6 F1200
G1 X33.4 Y5.6 F1200
G1 X32.8 Y6.4 F1200
G1 X33.6 Y6 F1200
G1 X34.2 Y6.8 F1200
M5
G0 X35.2 Y7 F3000
M3 S30
G1 X34.8 Y6.4 F1200
G1 X35.4 Y5 F1200
G1 X35.4 Y5.8 F1200
G1 X36.2 Y6.2 F1200
G1 X36.2 Y6.8 F1200
G1 X35.4 Y7 F1200
M5
G0 X37.4 Y7.8 F3000
M3 S30
G1 X36.6 Y7.4 F1200
G1 X37.2 Y5.6 F1200
G1 X38.2 Y6 F1200
G1 X38.2 Y6.4 F1200
G1 X37.2 Y6.2 F1200
G1 X38 Y6.8 F1200
G1 X37 Y7 F1200
G1 X37.6 Y7.8 F1200
M5
G0 X40.8 Y9.6 F3000
M3 S30
G1 X38.2 Y8.2 F1200
G1 X38.8 Y6.6 F1200
G1 X39.2 Y6.6 F1200
G1 X39.2 Y7.4 F1200
G1 X40.2 Y7 F1200
G1 X39.6 Y7.6 F1200
G1 X39.8 Y8.8 F1200
G1 X41.2 Y7.6 F1200
G1 X40.6 Y8.8 F1200
G1 X41 Y9.4 F1200
M5
G0 X38.4 Y12.6 F3000
M3 S30
G1 X39.4 Y10.4 F1200
G1 X38.8 Y10.2 F1200
G1 X37.4 Y11.2 F1200
G1 X37.8 Y9.6 F1200
G1 X37.4 Y9.6 F1200
G1 X36.4 Y11.6 F1200
G1 X37.2 Y11.8 F1200
G1 X38.2 Y11.2 F1200
G1 X38.2 Y12.6 F1200
M5
G0 X40.2 Y14 F3000
M3 S30
G1 X38.8 Y12.8 F1200
G1 X39.6 Y13 F1200
G1 X40.6 Y11.4 F1200
G1 X41 Y11.8 F1200
G1 X40 Y13.2 F1200
G1 X40.4 Y14 F1200
M5
G0 X41.2 Y14.8 F3000
M3 S30
G1 X41 Y14 F1200
G1 X41.8 Y12 F1200
G1 X42.2 Y13.2 F1200
G1 X43.6 Y13.6 F1200
G1 X41.4 Y14.6 F1200
M5
G0 X42.8 Y16 F3000
M3 S30
G1 X44 Y14.8 F1200
G1 X44.8 Y15.6 F1200
G1 X45 Y15.2 F1200
G1 X44 Y14.2 F1200
G1 X42.2 Y15.8 F1200
G1 X42.6 Y16.2 F1200
M5
G0 X44.2 Y18.2 F3000
M3 S30
G1 X43.8 Y17 F1200
G1 X44.2 Y16.6 F1200
G1 X45.6 Y17 F1200
G1 X45.2 Y15.8 F1200
G1 X45.8 Y16 F1200
G1 X46 Y17.2 F1200
G1 X45.2 Y17.6 F1200
G1 X44.4 Y17 F1200
G1 X44.4 Y18.2 F1200
M5
G0 X35.6 Y11.4 F3000
M3 S30
G1 X35.8 Y11 F1200
G1 X34.8 Y10.6 F1200
G1 X36.2 Y10.2 F1200
G1 X35.2 Y9.4 F1200
G1 X36.4 Y9.6 F1200
G1 X36.6 Y9.2 F1200
G1 X35 Y8.8 F1200
G1 X34.4 Y11 F1200
G1 X35.4 Y11.4 F1200
M5
G0 X33.2 Y10.6 F3000
M3 S30
G1 X33.8 Y10.6 F1200
G1 X34.2 Y8.4 F1200
G1 X33.6 Y8.4 F1200
G1 X33.2 Y9.4 F1200
G1 X32.6 Y8 F1200
G1 X31.8 Y9.4 F1200
G1 X31.8 Y7.8 F1200
G1 X31.4 Y7.8 F1200
G1 X31 Y10.2 F1200
G1 X31.6 Y10.4 F1200
G1 X32.6 Y9 F1200
G1 X33 Y10.6 F1200
M5
G0 X29.4 Y10.2 F3000
M3 S30
G1 X30.6 Y7.8 F1200
G1 X29.2 Y8.4 F1200
G1 X28.8 Y7.8 F1200
G1 X28.2 Y7.8 F1200
G1 X29.2 Y10.2 F1200
M5
G0 X26.2 Y10 F3000
M3 S30
G1 X27 Y10 F1200
G1 X27.4 Y8.8 F1200
G1 X26.2 Y8.4 F1200
G1 X26 Y9.8 F1200
M5
G0 X26 Y10.6 F3000
M3 S30
G1 X27.8 Y9.8 F1200
G1 X27.8 Y8.6 F1200
G1 X27 Y8 F1200
G1 X25.4 Y8.2 F1200
G1 X25.8 Y10.6 F1200
M5
G0 X23.2 Y11.2 F3000
M3 S30
G1 X24.2 Y9.2 F1200
G1 X24.8 Y10.8 F1200
G1 X25.2 Y10.6 F1200
G1 X24.6 Y8.4 F1200
G1 X23.8 Y8.6 F1200
G1 X23.2 Y10.2 F1200
G1 X22.8 Y8.8 F1200
G1 X22.4 Y8.8 F1200
G1 X23 Y11.2 F1200
M5
G0 X20.8 Y12.2 F3000
M3 S30
G1 X20.6 Y10 F1200
G1 X21.6 Y10.4 F1200
G1 X22 Y11.6 F1200
G1 X22.4 Y11.4 F1200
G1 X21.2 Y9.4 F1200
G1 X20 Y10 F1200
G1 X20.6 Y12.2 F1200
M5
G0 X19 Y13.2 F3000
M3 S30
G1 X20.2 Y12.4 F1200
G1 X19 Y12.6 F1200
G1 X18.6 Y12.2 F1200
G1 X19.6 Y11.6 F1200
G1 X19.4 Y11.2 F1200
G1 X18.4 Y11.6 F1200
G1 X17.8 Y11 F1200
G1 X17.6 Y11.4 F1200
G1 X18.8 Y13.2 F1200
M5
G0 X17.2 Y14.4 F3000
M3 S30
G1 X16.2 Y12.6 F1200
G1 X15.6 Y12.4 F1200
G1 X17 Y14.4 F1200
M5
G0 X15.2 Y15.2 F3000
M3 S30
G1 X15.6 Y15.4 F1200
G1 X16 Y14.8 F1200
G1 X15.6 Y14.4 F1200
G1 X15 Y15 F1200
M5
G0 X15.2 Y16 F3000
M3 S30
G1 X13.8 Y14.4 F1200
G1 X14 Y14 F1200
G1 X14.6 Y14.6 F1200
G1 X15.6 Y14 F1200
G1 X16.2 Y14.2 F1200
G1 X16.4 Y15 F1200
G1 X15.4 Y16 F1200
M5
G0 X14.2 Y17.4 F3000
M3 S30
G1 X14.4 Y17 F1200
G1 X13 Y14.8 F1200
G1 X13.2 Y15.6 F1200
G1 X12.8 Y16.2 F1200
G1 X11.6 Y16.6 F1200
G1 X14 Y17.4 F1200
M5
G0 X22 Y28.4 F3000
M3 S30
G1 X21.2 Y27 F1200
G1 X21.6 Y23.2 F1200
G1 X23.4 Y20.6 F1200
G1 X25.2 Y19.8 F1200
G1 X23.4 Y23 F1200
G1 X22.8 Y25.8 F1200
G1 X23 Y28 F1200
G1 X22.2 Y28.4 F1200
M5
G0 X26.2 Y31.2 F3000
M3 S30
G1 X22.8 Y30.6 F1200
G1 X20.8 Y29 F1200
G1 X20.2 Y27.8 F1200
G1 X20 Y24.4 F1200
G1 X21.2 Y21.4 F1200
G1 X23.6 Y19 F1200
G1 X27.6 Y17.4 F1200
G1 X30.6 Y17.4 F1200
G1 X34.2 Y18.8 F1200
G1 X36.6 Y21 F1200
G1 X38 Y23.8 F1200
G1 X38 Y27 F1200
G1 X37.2 Y29 F1200
G1 X35.8 Y30.2 F1200
G1 X33.8 Y31 F1200
G1 X31 Y31.4 F1200
G1 X26.4 Y31.2 F1200
M5
G0 X26.4 Y32 F3000
M3 S30
G1 X31.4 Y32 F1200
G1 X34.6 Y31.4 F1200
G1 X37 Y30.2 F1200
G1 X38 Y29 F1200
G1 X38.6 Y27.2 F1200
G1 X38.4 Y22.8 F1200
G1 X37 Y20.4 F1200
G1 X34.2 Y18 F1200
G1 X30.8 Y16.8 F1200
G1 X27.2 Y16.8 F1200
G1 X23 Y18.6 F1200
G1 X20.4 Y21.4 F1200
G1 X19.4 Y24 F1200
G1 X19.4 Y26.8 F1200
G1 X20.2 Y29.4 F1200
G1 X23 Y31.4 F1200
G1 X26.2 Y32 F1200
M5
G0 X21.8 Y34 F3000
M3 S30
G1 X22.8 Y34.2 F1200
G1 X28.2 Y32.6 F1200
G1 X29.8 Y32.6 F1200
G1 X36.2 Y34.2 F1200
G1 X38.6 Y31.2 F1200
G1 X39.6 Y28.6 F1200
G1 X39.8 Y24.8 F1200
G1 X38.2 Y20.4 F1200
G1 X35.6 Y17.6 F1200
G1 X32.2 Y15.8 F1200
G1 X27.8 Y15.4 F1200
G1 X24 Y16.6 F1200
G1 X21 Y19 F1200
G1 X18.6 Y23.4 F1200
G1 X18.4 Y28 F1200
G1 X20 Y32 F1200
G1 X21.6 Y33.8 F1200
M5
G0 X15.8 Y36.6 F3000
M3 S30
G1 X18.2 Y34.6 F1200
G1 X18.2 Y34 F1200
G1 X15.6 Y36.6 F1200
M5
G0 X14.4 Y38 F3000
M3 S30
G1 X15.2 Y38.2 F1200
G1 X15.2 Y37 F1200
G1 X14 Y37 F1200
G1 X14.2 Y38.2 F1200
M5
G0 X11.6 Y36.2 F3000
M3 S30
G1 X16.8 Y30.6 F1200
G1 X11.4 Y35.6 F1200
G1 X11.4 Y36.2 F1200
M5
G0 X9.4 Y33.2 F3000
M3 S30
G1 X10.8 Y33.2 F1200
G1 X10.8 Y31.6 F1200
G1 X9.2 Y31.6 F1200
G1 X9.2 Y33.2 F1200
M5
G0 X11.2 Y31.2 F3000
M3 S30
G1 X13.8 Y28.4 F1200
G1 X13.8 Y29 F1200
G1 X11.4 Y31.2 F1200
M5
G0 X8.6 Y39 F3000
M3 S30
G1 X9.6 Y38.6 F1200
G1 X10.8 Y39 F1200
G1 X10.4 Y37.8 F1200
G1 X10.8 Y36.6 F1200
G1 X9.8 Y37 F1200
G1 X8.4 Y36.8 F1200
G1 X8.8 Y38 F1200
G1 X8.4 Y39 F1200
M5
G0 X16.8 Y49.2 F3000
M3 S30
G1 X17.2 Y48.2 F1200
G1 X18 Y48.8 F1200
G1 X17.6 Y49.4 F1200
G1 X17 Y49.2 F1200
M5
G0 X17.2 Y50 F3000
M3 S30
G1 X15.8 Y49 F1200
G1 X17.6 Y46.2 F1200
G1 X18 Y46.6 F1200
G1 X17.4 Y47.6 F1200
G1 X18.6 Y48.6 F1200
G1 X18.6 Y49.4 F1200
G1 X17.4 Y50 F1200
M5
G0 X20.2 Y50.6 F3000
M3 S30
G1 X19.8 Y49.8 F1200
G1 X20.4 Y48.8 F1200
G1 X21.2 Y48.6 F1200
G1 X22.2 Y49.4 F1200
G1 X21.6 Y51 F1200
G1 X20.4 Y50.8 F1200
M5
G0 X20.4 Y51.6 F3000
M3 S30
G1 X19.4 Y50.8 F1200
G1 X19.2 Y49.4 F1200
G1 X19.8 Y48.4 F1200
G1 X21.4 Y48 F1200
G1 X22.8 Y49 F1200
G1 X23 Y50 F1200
G1 X22.2 Y51.4 F1200
G1 X20.6 Y51.6 F1200
M5
G0 X24 Y52.4 F3000
M3 S30
G1 X23.2 Y51.4 F1200
G1 X23.6 Y50.6 F1200
G1 X25.2 Y50 F1200
G1 X24.6 Y49.4 F1200
G1 X23.8 Y49.4 F1200
G1 X23.8 Y49 F1200
G1 X24.6 Y48.8 F1200
G1 X25.6 Y49.2 F1200
G1 X25.8 Y50.4 F1200
G1 X25.2 Y51 F1200
G1 X24 Y51.2 F1200
G1 X24.2 Y51.8 F1200
G1 X25 Y51.8 F1200
G1 X25.4 Y52.4 F1200
G1 X24.2 Y52.4 F1200
M5
G0 X25.8 Y55 F3000
M3 S30
G1 X22 Y54.4 F1200
G1 X16.2 Y52 F1200
G1 X12.4 Y49.4 F1200
G1 X7.8 Y44.6 F1200
G1 X4.8 Y39.4 F1200
G1 X3.6 Y36 F1200
G1 X2.8 Y32 F1200
G1 X2.8 Y26 F1200
G1 X3.6 Y22 F1200
G1 X5.8 Y16.6 F1200
G1 X8.8 Y12.2 F1200
G1 X12.2 Y8.8 F1200
G1 X15.6 Y6.4 F1200
G1 X22.2 Y3.6 F1200
G1 X26.6 Y2.8 F1200
G1 X31.2 Y2.8 F1200
G1 X36.4 Y3.8 F1200
G1 X42 Y6.2 F1200
G1 X46.6 Y9.6 F1200
G1 X49.6 Y12.8 F1200
G1 X52 Y16.4 F1200
G1 X54 Y21 F1200
G1 X55.2 Y27 F1200
G1 X55.2 Y31 F1200
G1 X54.2 Y36.4 F1200
G1 X51.8 Y42 F1200
G1 X48.8 Y46.2 F1200
G1 X45 Y49.8 F1200
G1 X42.4 Y51.6 F1200
G1 X36.6 Y54.2 F1200
G1 X31.6 Y55.2 F1200
G1 X26 Y55 F1200
M5
G0 X28.4 Y53 F3000
M3 S30
G1 X26.2 Y52.8 F1200
G1 X26.2 Y52.2 F1200
G1 X27.2 Y52 F1200
G1 X27.4 Y49.4 F1200
G1 X28 Y49.4 F1200
G1 X28 Y52.2 F1200
G1 X29 Y52.4 F1200
G1 X28.6 Y53 F1200
M5
G0 X29.8 Y52.8 F3000
M3 S30
G1 X29.4 Y49.6 F1200
G1 X30 Y49.4 F1200
G1 X30.4 Y51.8 F1200
G1 X31 Y49.4 F1200
G1 X31.8 Y49.6 F1200
G1 X32.6 Y51.4 F1200
G1 X32.6 Y49.2 F1200
G1 X33.2 Y49.2 F1200
G1 X33.6 Y52.4 F1200
G1 X32.6 Y52.6 F1200
G1 X31.4 Y50.8 F1200
G1 X30.8 Y52.8 F1200
G1 X30 Y52.8 F1200
M5
G0 X35.4 Y50.4 F3000
M3 S30
G1 X35.6 Y49.8 F1200
G1 X36.2 Y50 F1200
G1 X35.6 Y50.6 F1200
M5
G0 X36 Y52 F3000
M3 S30
G1 X33.6 Y49.2 F1200
G1 X35.4 Y49.4 F1200
G1 X36.2 Y49 F1200
G1 X36.4 Y48.2 F1200
G1 X37 Y48.2 F1200
G1 X36.6 Y51.8 F1200
G1 X36.2 Y52 F1200
M5
G0 X38.8 Y51 F3000
M3 S30
G1 X37.4 Y48 F1200
G1 X38 Y47.8 F1200
G1 X39 Y49.6 F1200
G1 X39.4 Y47 F1200
G1 X40.4 Y46.6 F1200
G1 X41.8 Y49.6 F1200
G1 X41.2 Y49.8 F1200
G1 X40.2 Y48 F1200
G1 X39.8 Y50.6 F1200
G1 X39 Y51 F1200
M5
G0 X29 Y44 F3000
M3 S30
G1 X40.6 Y40.8 F1200
G1 X40.4 Y39.8 F1200
G1 X37.2 Y38.8 F1200
G1 X37.2 Y35.2 F1200
G1 X39.4 Y32.6 F1200
G1 X40.8 Y29.2 F1200
G1 X42.8 Y28.2 F1200
G1 X43.6 Y27 F1200
G1 X43 Y23.4 F1200
G1 X40.4 Y22.2 F1200
G1 X39.2 Y19.4 F1200
G1 X36.6 Y16.6 F1200
G1 X33.4 Y14.8 F1200
G1 X29.8 Y14 F1200
G1 X25.2 Y14.6 F1200
G1 X21.8 Y16.4 F1200
G1 X18.8 Y19.6 F1200
G1 X17.6 Y22.4 F1200
G1 X15.6 Y23 F1200
G1 X14.6 Y24.4 F1200
G1 X14.6 Y27.4 F1200
G1 X15.2 Y28.2 F1200
G1 X17.4 Y29.2 F1200
G1 X18.4 Y32 F1200
G1 X20.8 Y35 F1200
G1 X20.8 Y38.8 F1200
G1 X17.8 Y39.8 F1200
G1 X17.4 Y40.6 F1200
G1 X18.2 Y41.2 F1200
G1 X28.8 Y44 F1200
M5
G0 X41.8 Y36.6 F3000
M3 S30
G1 X39.6 Y34 F1200
G1 X42.4 Y36.4 F1200
G1 X42 Y36.6 F1200
M5
G0 X42.6 Y38.2 F3000
M3 S30
G1 X42.6 Y37 F1200
G1 X43.8 Y37 F1200
G1 X43.8 Y38.2 F1200
G1 X42.8 Y38.2 F1200
M5
G0 X46.2 Y36.2 F3000
M3 S30
G1 X41 Y31 F1200
G1 X41.2 Y30.6 F1200
G1 X46.6 Y35.8 F1200
G1 X46.4 Y36.2 F1200
M5
G0 X47.2 Y39 F3000
M3 S30
G1 X47.2 Y36.6 F1200
G1 X48.2 Y37 F1200
G1 X49.4 Y36.6 F1200
G1 X49.4 Y39 F1200
G1 X48.2 Y38.6 F1200
G1 X47.4 Y39 F1200
M5
G0 X47.2 Y33.2 F3000
M3 S30
G1 X48.8 Y33.2 F1200
G1 X48.8 Y31.6 F1200
G1 X47 Y31.6 F1200
G1 X47 Y33.2 F1200
M5
G0 X46.6 Y31.2 F3000
M3 S30
G1 X46.8 Y30.8 F1200
G1 X44.2 Y28.4 F1200
G1 X44 Y28.8 F1200
G1 X46.4 Y31.2 F1200
M5
G0 X0.2 Y58 F3000
M3 S30
G1 X58 Y58 F1200
G1 X58 Y0 F1200
G1 X0 Y0 F1200
G1 X0 Y58 F1200
M5
G0 X0 Y0 F3000
M2
;
