; Generated by CNCPlotter python pipeline
G21
G90
M5
G0 X2 Y2 F3000
M3 S30
G1 X2.566 Y2.566 F1200
G1 X3.132 Y3.132 F1200
G1 X3.697 Y3.697 F1200
G1 X4.263 Y4.263 F1200
G1 X4.829 Y4.829 F1200
G1 X5.395 Y5.395 F1200
G1 X5.961 Y5.961 F1200
G1 X6.526 Y6.526 F1200
G1 X7.092 Y7.092 F1200
G1 X7.658 Y7.658 F1200
G1 X8.224 Y8.224 F1200
G1 X8.789 Y8.789 F1200
G1 X9.355 Y9.355 F1200
G1 X9.921 Y9.921 F1200
G1 X10.487 Y10.487 F1200
G1 X11.053 Y11.053 F1200
G1 X11.618 Y11.618 F1200
G1 X12.184 Y12.184 F1200
G1 X12.75 Y12.75 F1200
G1 X13.316 Y13.316 F1200
G1 X13.882 Y13.882 F1200
G1 X14.447 Y14.447 F1200
G1 X15.013 Y15.013 F1200
G1 X15.579 Y15.579 F1200
G1 X16.145 Y16.145 F1200
G1 X16.711 Y16.711 F1200
G1 X17.276 Y17.276 F1200
G1 X17.842 Y17.842 F1200
G1 X18.408 Y18.408 F1200
G1 X18.974 Y18.974 F1200
G1 X19.539 Y19.539 F1200
G1 X20.105 Y20.105 F1200
G1 X20.671 Y20.671 F1200
G1 X21.237 Y21.237 F1200
G1 X21.803 Y21.803 F1200
G1 X22.368 Y22.368 F1200
G1 X22.934 Y22.934 F1200
G1 X23.5 Y23.5 F1200
G1 X24.066 Y24.066 F1200
G1 X24.632 Y24.632 F1200
G1 X25.197 Y25.197 F1200
G1 X25.763 Y25.763 F1200
G1 X26.329 Y26.329 F1200
G1 X26.895 Y26.895 F1200
G1 X27.461 Y27.461 F1200
G1 X28.026 Y28.026 F1200
G1 X28.592 Y28.592 F1200
G1 X29.158 Y29.158 F1200
G1 X29.724 Y29.724 F1200
G1 X30.289 Y30.289 F1200
G1 X30.855 Y30.855 F1200
G1 X31.421 Y31.421 F1200
G1 X31.987 Y31.987 F1200
G1 X32.553 Y32.553 F1200
G1 X33.118 Y33.118 F1200
G1 X33.684 Y33.684 F1200
G1 X34.25 Y34.25 F1200
G1 X34.816 Y34.816 F1200
G1 X35.382 Y35.382 F1200
G1 X35.947 Y35.947 F1200
G1 X36.513 Y36.513 F1200
G1 X37.079 Y37.079 F1200
G1 X37.645 Y37.645 F1200
G1 X38.211 Y38.211 F1200
G1 X38.776 Y38.776 F1200
G1 X39.342 Y39.342 F1200
G1 X39.908 Y39.908 F1200
G1 X40.474 Y40.474 F1200
G1 X41.039 Y41.039 F1200
G1 X41.605 Y41.605 F1200
G1 X42.171 Y42.171 F1200
G1 X42.737 Y42.737 F1200
G1 X43.303 Y43.303 F1200
G1 X43.868 Y43.868 F1200
G1 X44.434 Y44.434 F1200
G1 X45 Y45 F1200
G1 X45.566 Y45.566 F1200
G1 X46.132 Y46.132 F1200
G1 X46.697 Y46.697 F1200
G1 X47.263 Y47.263 F1200
G1 X47.829 Y47.829 F1200
G1 X48.395 Y48.395 F1200
G1 X48.961 Y48.961 F1200
G1 X49.526 Y49.526 F1200
G1 X50.092 Y50.092 F1200
G1 X50.658 Y50.658 F1200
G1 X51.224 Y51.224 F1200
G1 X51.789 Y51.789 F1200
G1 X52.355 Y52.355 F1200
G1 X52.921 Y52.921 F1200
G1 X53.487 Y53.487 F1200
G1 X54.053 Y54.053 F1200
G1 X54.618 Y54.618 F1200
G1 X55.184 Y55.184 F1200
G1 X55.75 Y55.75 F1200
G1 X56.316 Y56.316 F1200
G1 X56.882 Y56.882 F1200
G1 X57.447 Y57.447 F1200
G1 X58.013 Y58.013 F1200
G1 X58.579 Y58.579 F1200
G1 X59.145 Y59.145 F1200
G1 X59.711 Y59.711 F1200
G1 X60.276 Y60.276 F1200
G1 X60.842 Y60.842 F1200
G1 X61.408 Y61.408 F1200
G1 X61.974 Y61.974 F1200
G1 X62.539 Y62.539 F1200
G1 X63.105 Y63.105 F1200
G1 X63.671 Y63.671 F1200
G1 X64.237 Y64.237 F1200
G1 X64.803 Y64.803 F1200
G1 X65.368 Y65.368 F1200
G1 X65.934 Y65.934 F1200
G1 X66.5 Y66.5 F1200
G1 X67.066 Y67.066 F1200
G1 X67.632 Y67.632 F1200
G1 X68.197 Y68.197 F1200
G1 X68.763 Y68.763 F1200
G1 X69.329 Y69.329 F1200
G1 X69.895 Y69.895 F1200
G1 X70.461 Y70.461 F1200
G1 X71.026 Y71.026 F1200
G1 X71.592 Y71.592 F1200
G1 X72.158 Y72.158 F1200
G1 X72.724 Y72.724 F1200
G1 X73.289 Y73.289 F1200
G1 X73.855 Y73.855 F1200
G1 X74.421 Y74.421 F1200
G1 X74.987 Y74.987 F1200
G1 X75.553 Y75.553 F1200
G1 X76.118 Y76.118 F1200
G1 X76.684 Y76.684 F1200
G1 X77.25 Y77.25 F1200
G1 X77.816 Y77.816 F1200
G1 X78.382 Y78.382 F1200
G1 X78.947 Y78.947 F1200
G1 X79.513 Y79.513 F1200
G1 X80.079 Y80.079 F1200
G1 X80.645 Y80.645 F1200
G1 X81.211 Y81.211 F1200
G1 X81.776 Y81.776 F1200
G1 X82.342 Y82.342 F1200
G1 X82.908 Y82.908 F1200
G1 X83.474 Y83.474 F1200
G1 X84.039 Y84.039 F1200
G1 X84.605 Y84.605 F1200
G1 X85.171 Y85.171 F1200
G1 X85.737 Y85.737 F1200
G1 X86.303 Y86.303 F1200
G1 X86.868 Y86.868 F1200
G1 X87.434 Y87.434 F1200
G1 X88 Y88 F1200
M5
G0 X88 Y2 F3000
M3 S30
G1 X87.434 Y2.566 F1200
G1 X86.868 Y3.132 F1200
G1 X86.303 Y3.697 F1200
G1 X85.737 Y4.263 F1200
G1 X85.171 Y4.829 F1200
G1 X84.605 Y5.395 F1200
G1 X84.039 Y5.961 F1200
G1 X83.474 Y6.526 F1200
G1 X82.908 Y7.092 F1200
G1 X82.342 Y7.658 F1200
G1 X81.776 Y8.224 F1200
G1 X81.211 Y8.789 F1200
G1 X80.645 Y9.355 F1200
G1 X80.079 Y9.921 F1200
G1 X79.513 Y10.487 F1200
G1 X78.947 Y11.053 F1200
G1 X78.382 Y11.618 F1200
G1 X77.816 Y12.184 F1200
G1 X77.25 Y12.75 F1200
G1 X76.684 Y13.316 F1200
G1 X76.118 Y13.882 F1200
G1 X75.553 Y14.447 F1200
G1 X74.987 Y15.013 F1200
G1 X74.421 Y15.579 F1200
G1 X73.855 Y16.145 F1200
G1 X73.289 Y16.711 F1200
G1 X72.724 Y17.276 F1200
G1 X72.158 Y17.842 F1200
G1 X71.592 Y18.408 F1200
G1 X71.026 Y18.974 F1200
G1 X70.461 Y19.539 F1200
G1 X69.895 Y20.105 F1200
G1 X69.329 Y20.671 F1200
G1 X68.763 Y21.237 F1200
G1 X68.197 Y21.803 F1200
G1 X67.632 Y22.368 F1200
G1 X67.066 Y22.934 F1200
G1 X66.5 Y23.5 F1200
G1 X65.934 Y24.066 F1200
G1 X65.368 Y24.632 F1200
G1 X64.803 Y25.197 F1200
G1 X64.237 Y25.763 F1200
G1 X63.671 Y26.329 F1200
G1 X63.105 Y26.895 F1200
G1 X62.539 Y27.461 F1200
G1 X61.974 Y28.026 F1200
G1 X61.408 Y28.592 F1200
G1 X60.842 Y29.158 F1200
G1 X60.276 Y29.724 F1200
G1 X59.711 Y30.289 F1200
G1 X59.145 Y30.855 F1200
G1 X58.579 Y31.421 F1200
G1 X58.013 Y31.987 F1200
G1 X57.447 Y32.553 F1200
G1 X56.882 Y33.118 F1200
G1 X56.316 Y33.684 F1200
G1 X55.75 Y34.25 F1200
G1 X55.184 Y34.816 F1200
G1 X54.618 Y35.382 F1200
G1 X54.053 Y35.947 F1200
G1 X53.487 Y36.513 F1200
G1 X52.921 Y37.079 F1200
G1 X52.355 Y37.645 F1200
G1 X51.789 Y38.211 F1200
G1 X51.224 Y38.776 F1200
G1 X50.658 Y39.342 F1200
G1 X50.092 Y39.908 F1200
G1 X49.526 Y40.474 F1200
G1 X48.961 Y41.039 F1200
G1 X48.395 Y41.605 F1200
G1 X47.829 Y42.171 F1200
G1 X47.263 Y42.737 F1200
G1 X46.697 Y43.303 F1200
G1 X46.132 Y43.868 F1200
G1 X45.566 Y44.434 F1200
G1 X45 Y45 F1200
G1 X44.434 Y45.566 F1200
G1 X43.868 Y46.132 F1200
G1 X43.303 Y46.697 F1200
G1 X42.737 Y47.263 F1200
G1 X42.171 Y47.829 F1200
G1 X41.605 Y48.395 F1200
G1 X41.039 Y48.961 F1200
G1 X40.474 Y49.526 F1200
G1 X39.908 Y50.092 F1200
G1 X39.342 Y50.658 F1200
G1 X38.776 Y51.224 F1200
G1 X38.211 Y51.789 F1200
G1 X37.645 Y52.355 F1200
G1 X37.079 Y52.921 F1200
G1 X36.513 Y53.487 F1200
G1 X35.947 Y54.053 F1200
G1 X35.382 Y54.618 F1200
G1 X34.816 Y55.184 F1200
G1 X34.25 Y55.75 F1200
G1 X33.684 Y56.316 F1200
G1 X33.118 Y56.882 F1200
G1 X32.553 Y57.447 F1200
G1 X31.987 Y58.013 F1200
G1 X31.421 Y58.579 F1200
G1 X30.855 Y59.145 F1200
G1 X30.289 Y59.711 F1200
G1 X29.724 Y60.276 F1200
G1 X29.158 Y60.842 F1200
G1 X28.592 Y61.408 F1200
G1 X28.026 Y61.974 F1200
G1 X27.461 Y62.539 F1200
G1 X26.895 Y63.105 F1200
G1 X26.329 Y63.671 F1200
G1 X25.763 Y64.237 F1200
G1 X25.197 Y64.803 F1200
G1 X24.632 Y65.368 F1200
G1 X24.066 Y65.934 F1200
G1 X23.5 Y66.5 F1200
G1 X22.934 Y67.066 F1200
G1 X22.368 Y67.632 F1200
G1 X21.803 Y68.197 F1200
G1 X21.237 Y68.763 F1200
G1 X20.671 Y69.329 F1200
G1 X20.105 Y69.895 F1200
G1 X19.539 Y70.461 F1200
G1 X18.974 Y71.026 F1200
G1 X18.408 Y71.592 F1200
G1 X17.842 Y72.158 F1200
G1 X17.276 Y72.724 F1200
G1 X16.711 Y73.289 F1200
G1 X16.145 Y73.855 F1200
G1 X15.579 Y74.421 F1200
G1 X15.013 Y74.987 F1200
G1 X14.447 Y75.553 F1200
G1 X13.882 Y76.118 F1200
G1 X13.316 Y76.684 F1200
G1 X12.75 Y77.25 F1200
G1 X12.184 Y77.816 F1200
G1 X11.618 Y78.382 F1200
G1 X11.053 Y78.947 F1200
G1 X10.487 Y79.513 F1200
G1 X9.921 Y80.079 F1200
G1 X9.355 Y80.645 F1200
G1 X8.789 Y81.211 F1200
G1 X8.224 Y81.776 F1200
G1 X7.658 Y82.342 F1200
G1 X7.092 Y82.908 F1200
G1 X6.526 Y83.474 F1200
G1 X5.961 Y84.039 F1200
G1 X5.395 Y84.605 F1200
G1 X4.829 Y85.171 F1200
G1 X4.263 Y85.737 F1200
G1 X3.697 Y86.303 F1200
G1 X3.132 Y86.868 F1200
G1 X2.566 Y87.434 F1200
G1 X2 Y88 F1200
M5
G0 X2 Y2 F3000
M3 S30
G1 X2.8 Y2 F1200
G1 X3.6 Y2 F1200
G1 X4.4 Y2 F1200
G1 X5.2 Y2 F1200
G1 X6 Y2 F1200
G1 X6.8 Y2 F1200
G1 X7.6 Y2 F1200
G1 X8.4 Y2 F1200
G1 X9.2 Y2 F1200
G1 X10 Y2 F1200
G1 X10.8 Y2 F1200
G1 X11.6 Y2 F1200
G1 X12.4 Y2 F1200
G1 X13.2 Y2 F1200
G1 X14 Y2 F1200
G1 X14.8 Y2 F1200
G1 X15.6 Y2 F1200
G1 X16.4 Y2 F1200
G1 X17.2 Y2 F1200
G1 X18 Y2 F1200
G1 X18.8 Y2 F1200
G1 X19.6 Y2 F1200
G1 X20.4 Y2 F1200
G1 X21.2 Y2 F1200
G1 X22 Y2 F1200
G1 X22.8 Y2 F1200
G1 X23.6 Y2 F1200
G1 X24.4 Y2 F1200
G1 X25.2 Y2 F1200
G1 X26 Y2 F1200
G1 X26.8 Y2 F1200
G1 X27.6 Y2 F1200
G1 X28.4 Y2 F1200
G1 X29.2 Y2 F1200
G1 X30 Y2 F1200
G1 X30.8 Y2 F1200
G1 X31.6 Y2 F1200
G1 X32.4 Y2 F1200
G1 X33.2 Y2 F1200
G1 X34 Y2 F1200
G1 X34.8 Y2 F1200
G1 X35.6 Y2 F1200
G1 X36.4 Y2 F1200
G1 X37.2 Y2 F1200
G1 X38 Y2 F1200
G1 X38.8 Y2 F1200
G1 X39.6 Y2 F1200
G1 X40.4 Y2 F1200
G1 X41.2 Y2 F1200
G1 X42 Y2 F1200
G1 X42.8 Y2 F1200
G1 X43.6 Y2 F1200
G1 X44.4 Y2 F1200
G1 X45.2 Y2 F1200
G1 X46 Y2 F1200
G1 X46.8 Y2 F1200
G1 X47.6 Y2 F1200
G1 X48.4 Y2 F1200
G1 X49.2 Y2 F1200
G1 X50 Y2 F1200
G1 X50.8 Y2 F1200
G1 X51.6 Y2 F1200
G1 X52.4 Y2 F1200
G1 X53.2 Y2 F1200
G1 X54 Y2 F1200
G1 X54.8 Y2 F1200
G1 X55.6 Y2 F1200
G1 X56.4 Y2 F1200
G1 X57.2 Y2 F1200
G1 X58 Y2 F1200
G1 X58.8 Y2 F1200
G1 X59.6 Y2 F1200
G1 X60.4 Y2 F1200
G1 X61.2 Y2 F1200
G1 X62 Y2 F1200
G1 X62.8 Y2 F1200
G1 X63.6 Y2 F1200
G1 X64.4 Y2 F1200
G1 X65.2 Y2 F1200
G1 X66 Y2 F1200
G1 X66.8 Y2 F1200
G1 X67.6 Y2 F1200
G1 X68.4 Y2 F1200
G1 X69.2 Y2 F1200
G1 X70 Y2 F1200
G1 X70.8 Y2 F1200
G1 X71.6 Y2 F1200
G1 X72.4 Y2 F1200
G1 X73.2 Y2 F1200
G1 X74 Y2 F1200
G1 X74.8 Y2 F1200
G1 X75.6 Y2 F1200
G1 X76.4 Y2 F1200
G1 X77.2 Y2 F1200
G1 X78 Y2 F1200
G1 X78.8 Y2 F1200
G1 X79.6 Y2 F1200
G1 X80.4 Y2 F1200
G1 X81.2 Y2 F1200
G1 X82 Y2 F1200
G1 X82.8 Y2 F1200
G1 X83.6 Y2 F1200
G1 X84.4 Y2 F1200
G1 X85.2 Y2 F1200
G1 X86 Y2 F1200
G1 X86.8 Y2 F1200
G1 X87.6 Y2 F1200
G1 X88.4 Y2 F1200
G1 X89.2 Y2 F1200
G1 X90 Y2 F1200
G1 X90 Y2.8 F1200
G1 X90 Y3.6 F1200
G1 X90 Y4.4 F1200
G1 X90 Y5.2 F1200
G1 X90 Y6 F1200
G1 X90 Y6.8 F1200
G1 X90 Y7.6 F1200
G1 X90 Y8.4 F1200
G1 X90 Y9.2 F1200
G1 X90 Y10 F1200
G1 X90 Y10.8 F1200
G1 X90 Y11.6 F1200
G1 X90 Y12.4 F1200
G1 X90 Y13.2 F1200
G1 X90 Y14 F1200
G1 X90 Y14.8 F1200
G1 X90 Y15.6 F1200
G1 X90 Y16.4 F1200
G1 X90 Y17.2 F1200
G1 X90 Y18 F1200
G1 X90 Y18.8 F1200
G1 X90 Y19.6 F1200
G1 X90 Y20.4 F1200
G1 X90 Y21.2 F1200
G1 X90 Y22 F1200
G1 X90 Y22.8 F1200
G1 X90 Y23.6 F1200
G1 X90 Y24.4 F1200
G1 X90 Y25.2 F1200
G1 X90 Y26 F1200
G1 X90 Y26.8 F1200
G1 X90 Y27.6 F1200
G1 X90 Y28.4 F1200
G1 X90 Y29.2 F1200
G1 X90 Y30 F1200
G1 X90 Y30.8 F1200
G1 X90 Y31.6 F1200
G1 X90 Y32.4 F1200
G1 X90 Y33.2 F1200
G1 X90 Y34 F1200
G1 X90 Y34.8 F1200
G1 X90 Y35.6 F1200
G1 X90 Y36.4 F1200
G1 X90 Y37.2 F1200
G1 X90 Y38 F1200
G1 X90 Y38.8 F1200
G1 X90 Y39.6 F1200
G1 X90 Y40.4 F1200
G1 X90 Y41.2 F1200
G1 X90 Y42 F1200
G1 X90 Y42.8 F1200
G1 X90 Y43.6 F1200
G1 X90 Y44.4 F1200
G1 X90 Y45.2 F1200
G1 X90 Y46 F1200
G1 X90 Y46.8 F1200
G1 X90 Y47.6 F1200
G1 X90 Y48.4 F1200
G1 X90 Y49.2 F1200
G1 X90 Y50 F1200
G1 X90 Y50.8 F1200
G1 X90 Y51.6 F1200
G1 X90 Y52.4 F1200
G1 X90 Y53.2 F1200
G1 X90 Y54 F1200
G1 X90 Y54.8 F1200
G1 X90 Y55.6 F1200
G1 X90 Y56.4 F1200
G1 X90 Y57.2 F1200
G1 X90 Y58 F1200
G1 X90 Y58.8 F1200
G1 X90 Y59.6 F1200
G1 X90 Y60.4 F1200
G1 X90 Y61.2 F1200
G1 X90 Y62 F1200
G1 X90 Y62.8 F1200
G1 X90 Y63.6 F1200
G1 X90 Y64.4 F1200
G1 X90 Y65.2 F1200
G1 X90 Y66 F1200
G1 X90 Y66.8 F1200
G1 X90 Y67.6 F1200
G1 X90 Y68.4 F1200
G1 X90 Y69.2 F1200
G1 X90 Y70 F1200
G1 X90 Y70.8 F1200
G1 X90 Y71.6 F1200
G1 X90 Y72.4 F1200
G1 X90 Y73.2 F1200
G1 X90 Y74 F1200
G1 X90 Y74.8 F1200
G1 X90 Y75.6 F1200
G1 X90 Y76.4 F1200
G1 X90 Y77.2 F1200
G1 X90 Y78 F1200
G1 X90 Y78.8 F1200
G1 X90 Y79.6 F1200
G1 X90 Y80.4 F1200
G1 X90 Y81.2 F1200
G1 X90 Y82 F1200
G1 X90 Y82.8 F1200
G1 X90 Y83.6 F1200
G1 X90 Y84.4 F1200
G1 X90 Y85.2 F1200
G1 X90 Y86 F1200
G1 X90 Y86.8 F1200
G1 X90 Y87.6 F1200
G1 X90 Y88.4 F1200
G1 X90 Y89.2 F1200
G1 X90 Y90 F1200
G1 X89.2 Y90 F1200
G1 X88.4 Y90 F1200
G1 X87.6 Y90 F1200
G1 X86.8 Y90 F1200
G1 X86 Y90 F1200
G1 X85.2 Y90 F1200
G1 X84.4 Y90 F1200
G1 X83.6 Y90 F1200
G1 X82.8 Y90 F1200
G1 X82 Y90 F1200
G1 X81.2 Y90 F1200
G1 X80.4 Y90 F1200
G1 X79.6 Y90 F1200
G1 X78.8 Y90 F1200
G1 X78 Y90 F1200
G1 X77.2 Y90 F1200
G1 X76.4 Y90 F1200
G1 X75.6 Y90 F1200
G1 X74.8 Y90 F1200
G1 X74 Y90 F1200
G1 X73.2 Y90 F1200
G1 X72.4 Y90 F1200
G1 X71.6 Y90 F1200
G1 X70.8 Y90 F1200
G1 X70 Y90 F1200
G1 X69.2 Y90 F1200
G1 X68.4 Y90 F1200
G1 X67.6 Y90 F1200
G1 X66.8 Y90 F1200
G1 X66 Y90 F1200
G1 X65.2 Y90 F1200
G1 X64.4 Y90 F1200
G1 X63.6 Y90 F1200
G1 X62.8 Y90 F1200
G1 X62 Y90 F1200
G1 X61.2 Y90 F1200
G1 X60.4 Y90 F1200
G1 X59.6 Y90 F1200
G1 X58.8 Y90 F1200
G1 X58 Y90 F1200
G1 X57.2 Y90 F1200
G1 X56.4 Y90 F1200
G1 X55.6 Y90 F1200
G1 X54.8 Y90 F1200
G1 X54 Y90 F1200
G1 X53.2 Y90 F1200
G1 X52.4 Y90 F1200
G1 X51.6 Y90 F1200
G1 X50.8 Y90 F1200
G1 X50 Y90 F1200
G1 X49.2 Y90 F1200
G1 X48.4 Y90 F1200
G1 X47.6 Y90 F1200
G1 X46.8 Y90 F1200
G1 X46 Y90 F1200
G1 X45.2 Y90 F1200
G1 X44.4 Y90 F1200
G1 X43.6 Y90 F1200
G1 X42.8 Y90 F1200
G1 X42 Y90 F1200
G1 X41.2 Y90 F1200
G1 X40.4 Y90 F1200
G1 X39.6 Y90 F1200
G1 X38.8 Y90 F1200
G1 X38 Y90 F1200
G1 X37.2 Y90 F1200
G1 X36.4 Y90 F1200
G1 X35.6 Y90 F1200
G1 X34.8 Y90 F1200
G1 X34 Y90 F1200
G1 X33.2 Y90 F1200
G1 X32.4 Y90 F1200
G1 X31.6 Y90 F1200
G1 X30.8 Y90 F1200
G1 X30 Y90 F1200
G1 X29.2 Y90 F1200
G1 X28.4 Y90 F1200
G1 X27.6 Y90 F1200
G1 X26.8 Y90 F1200
G1 X26 Y90 F1200
G1 X25.2 Y90 F1200
G1 X24.4 Y90 F1200
G1 X23.6 Y90 F1200
G1 X22.8 Y90 F1200
G1 X22 Y90 F1200
G1 X21.2 Y90 F1200
G1 X20.4 Y90 F1200
G1 X19.6 Y90 F1200
G1 X18.8 Y90 F1200
G1 X18 Y90 F1200
G1 X17.2 Y90 F1200
G1 X16.4 Y90 F1200
G1 X15.6 Y90 F1200
G1 X14.8 Y90 F1200
G1 X14 Y90 F1200
G1 X13.2 Y90 F1200
G1 X12.4 Y90 F1200
G1 X11.6 Y90 F1200
G1 X10.8 Y90 F1200
G1 X10 Y90 F1200
G1 X9.2 Y90 F1200
G1 X8.4 Y90 F1200
G1 X7.6 Y90 F1200
G1 X6.8 Y90 F1200
G1 X6 Y90 F1200
G1 X5.2 Y90 F1200
G1 X4.4 Y90 F1200
G1 X3.6 Y90 F1200
G1 X2.8 Y90 F1200
G1 X2 Y90 F1200
G1 X2 Y89.2 F1200
G1 X2 Y88.4 F1200
G1 X2 Y87.6 F1200
G1 X2 Y86.8 F1200
G1 X2 Y86 F1200
G1 X2 Y85.2 F1200
G1 X2 Y84.4 F1200
G1 X2 Y83.6 F1200
G1 X2 Y82.8 F1200
G1 X2 Y82 F1200
G1 X2 Y81.2 F1200
G1 X2 Y80.4 F1200
G1 X2 Y79.6 F1200
G1 X2 Y78.8 F1200
G1 X2 Y78 F1200
G1 X2 Y77.2 F1200
G1 X2 Y76.4 F1200
G1 X2 Y75.6 F1200
G1 X2 Y74.8 F1200
G1 X2 Y74 F1200
G1 X2 Y73.2 F1200
G1 X2 Y72.4 F1200
G1 X2 Y71.6 F1200
G1 X2 Y70.8 F1200
G1 X2 Y70 F1200
G1 X2 Y69.2 F1200
G1 X2 Y68.4 F1200
G1 X2 Y67.6 F1200
G1 X2 Y66.8 F1200
G1 X2 Y66 F1200
G1 X2 Y65.2 F1200
G1 X2 Y64.4 F1200
G1 X2 Y63.6 F1200
G1 X2 Y62.8 F1200
G1 X2 Y62 F1200
G1 X2 Y61.2 F1200
G1 X2 Y60.4 F1200
G1 X2 Y59.6 F1200
G1 X2 Y58.8 F1200
G1 X2 Y58 F1200
G1 X2 Y57.2 F1200
G1 X2 Y56.4 F1200
G1 X2 Y55.6 F1200
G1 X2 Y54.8 F1200
G1 X2 Y54 F1200
G1 X2 Y53.2 F1200
G1 X2 Y52.4 F1200
G1 X2 Y51.6 F1200
G1 X2 Y50.8 F1200
G1 X2 Y50 F1200
G1 X2 Y49.2 F1200
G1 X2 Y48.4 F1200
G1 X2 Y47.6 F1200
G1 X2 Y46.8 F1200
G1 X2 Y46 F1200
G1 X2 Y45.2 F1200
G1 X2 Y44.4 F1200
G1 X2 Y43.6 F1200
G1 X2 Y42.8 F1200
G1 X2 Y42 F1200
G1 X2 Y41.2 F1200
G1 X2 Y40.4 F1200
G1 X2 Y39.6 F1200
G1 X2 Y38.8 F1200
G1 X2 Y38 F1200
G1 X2 Y37.2 F1200
G1 X2 Y36.4 F1200
G1 X2 Y35.6 F1200
G1 X2 Y34.8 F1200
G1 X2 Y34 F1200
G1 X2 Y33.2 F1200
G1 X2 Y32.4 F1200
G1 X2 Y31.6 F1200
G1 X2 Y30.8 F1200
G1 X2 Y30 F1200
G1 X2 Y29.2 F1200
G1 X2 Y28.4 F1200
G1 X2 Y27.6 F1200
G1 X2 Y26.8 F1200
G1 X2 Y26 F1200
G1 X2 Y25.2 F1200
G1 X2 Y24.4 F1200
G1 X2 Y23.6 F1200
G1 X2 Y22.8 F1200
G1 X2 Y22 F1200
G1 X2 Y21.2 F1200
G1 X2 Y20.4 F1200
G1 X2 Y19.6 F1200
G1 X2 Y18.8 F1200
G1 X2 Y18 F1200
G1 X2 Y17.2 F1200
G1 X2 Y16.4 F1200
G1 X2 Y15.6 F1200
G1 X2 Y14.8 F1200
G1 X2 Y14 F1200
G1 X2 Y13.2 F1200
G1 X2 Y12.4 F1200
G1 X2 Y11.6 F1200
G1 X2 Y10.8 F1200
G1 X2 Y10 F1200
G1 X2 Y9.2 F1200
G1 X2 Y8.4 F1200
G1 X2 Y7.6 F1200
G1 X2 Y6.8 F1200
G1 X2 Y6 F1200
G1 X2 Y5.2 F1200
G1 X2 Y4.4 F1200
G1 X2 Y3.6 F1200
G1 X2 Y2.8 F1200
G1 X2 Y2 F1200
M5
G0 X0 Y0 F3000
M2
;
